NORAD_CAT_ID,OBJECT_NAME,OBJECT_TYPE,EPOCH,MEAN_MOTION,ECCENTRICITY,INCLINATION,RA_OF_ASC_NODE,ARG_OF_PERICENTER,MEAN_ANOMALY,BSTAR,MEAN_MOTION_DOT,MEAN_MOTION_DDOT,TLE_LINE0,TLE_LINE1,TLE_LINE2,SEMIMAJOR_AXIS,PERIOD,APOGEE,PERIGEE,DECAYED
51999.0,STARLINK-3667,PAYLOAD,2022-11-22 11:22:27,15.08842949,0.0001804,53.2194,20.571,51.117,308.9983,6.672899999999999e-05,7.74e-06,0.0,0 STARLINK-3667,1 51999U 22025AV  22326.47392816  .00000774  00000-0  66729-4 0  9991,2 51999  53.2194  20.5710 0001804  51.1170 308.9983 15.08842949 39273,6917.871,95.437,540.984,538.488,0.0
51999.0,STARLINK-3667,PAYLOAD,2022-11-22 16:08:36,15.08842773,0.0001901,53.2192,19.6796,47.9139,312.2014,7.8371e-05,9.59e-06,0.0,0 STARLINK-3667,1 51999U 22025AV  22326.67264803  .00000959  00000-0  78371-4 0  9998,2 51999  53.2192  19.6796 0001901  47.9139 312.2014 15.08842773 39302,6917.871999999999,95.437,541.052,538.422,0.0
51999.0,STARLINK-3667,PAYLOAD,2022-11-23 09:37:51,15.08842365,0.0001926,53.2192,16.4082,48.5995,311.5162,8.565e-05,1.075e-05,0.0,0 STARLINK-3667,1 51999U 22025AV  22327.40128880  .00001075  00000-0  85650-4 0  9992,2 51999  53.2192  16.4082 0001926  48.5995 311.5162 15.08842365 39414,6917.873000000001,95.437,541.071,538.406,0.0
51999.0,STARLINK-3667,PAYLOAD,2022-11-23 20:45:33,15.08843942,0.0001897,53.2192,14.3267,47.2121,312.903,7.0758e-05,8.38e-06,0.0,0 STARLINK-3667,1 51999U 22025AV  22327.86496709  .00000838  00000-0  70758-4 0  9999,2 51999  53.2192  14.3267 0001897  47.2121 312.9030 15.08843942 39488,6917.868,95.437,541.0459999999998,538.4209999999998,0.0
51999.0,STARLINK-3667,PAYLOAD,2022-11-24 09:28:39,15.08827789,0.0001797,53.2184,11.9474,46.8218,313.2924,0.00023719,3.488e-05,0.0,0 STARLINK-3667,1 51999U 22025AV  22328.39489714  .00003488  00000-0  23719-3 0  9994,2 51999  53.2184  11.9474 0001797  46.8218 313.2924 15.08827789 41078,6917.918000000002,95.438,541.026,538.54,0.0
51999.0,STARLINK-3667,PAYLOAD,2022-11-24 14:14:47,15.08844616,0.0001903,53.2185,11.0555,45.9569,314.158,2.942e-05,1.8e-06,0.0,0 STARLINK-3667,1 51999U 22025AV  22328.59360989  .00000180  00000-0  29420-4 0  9990,2 51999  53.2185  11.0555 0001903  45.9569 314.1580 15.08844616 41108,6917.866,95.437,541.048,538.415,0.0
51999.0,STARLINK-3667,PAYLOAD,2022-11-24 20:36:20,15.08847396,0.0001901,53.2187,9.8661,45.6222,314.4926,6.8636e-05,8.05e-06,0.0,0 STARLINK-3667,1 51999U 22025AV  22328.85856582  .00000805  00000-0  68636-4 0  9994,2 51999  53.2187   9.8661 0001901  45.6222 314.4926 15.08847396 39634,6917.858,95.437,541.038,538.408,0.0
51999.0,STARLINK-3667,PAYLOAD,2022-11-25 09:19:25,15.08838531,0.0001945,53.22,7.4877,48.3501,311.7657,-1.2506e-06,-3.08e-06,0.0,0 STARLINK-3667,1 51999U 22025AV  22329.38849336 -.00000308  00000-0 -12506-5 0  9998,2 51999  53.2200   7.4877 0001945  48.3501 311.7657 15.08838531 41221,6917.885,95.438,541.095,538.404,0.0
51999.0,STARLINK-3667,PAYLOAD,2022-11-25 12:30:11,15.08840692,0.0001954,53.2192,6.8925,49.4422,310.6740000000001,2.5812e-05,1.23e-06,0.0,0 STARLINK-3667,1 51999U 22025AV  22329.52097144  .00000123  00000-0  25812-4 0  9992,2 51999  53.2192   6.8925 0001954  49.4422 310.6740 15.08840692 39737,6917.878000000002,95.438,541.095,538.3919999999998,0.0
51999.0,STARLINK-3667,PAYLOAD,2022-11-25 14:05:34,15.08841881,0.0001956,53.2188,6.5954,46.4181,313.6974,4.2144e-05,3.83e-06,0.0,0 STARLINK-3667,1 51999U 22025AV  22329.58721016  .00000383  00000-0  42144-4 0  9995,2 51999  53.2188   6.5954 0001956  46.4181 313.6974 15.08841881 39746,6917.875,95.437,541.0930000000002,538.387,0.0
51999.0,STARLINK-3667,PAYLOAD,2022-11-26 02:48:39,15.08848159,0.0001946,53.2188,4.2165,45.9952,314.12,9.2222e-05,1.18e-05,0.0,0 STARLINK-3667,1 51999U 22025AV  22330.11712436  .00001180  00000-0  92222-4 0  9990,2 51999  53.2188   4.2165 0001946  45.9952 314.1200 15.08848159 41335,6917.855,95.437,541.067,538.374,0.0
51999.0,STARLINK-3667,PAYLOAD,2022-11-26 12:20:58,15.08845337,0.0001949,53.2191,2.4327,41.3923,318.7217,5.848100000000001e-05,6.43e-06,0.0,0 STARLINK-3667,1 51999U 22025AV  22330.51456599  .00000643  00000-0  58481-4 0  9991,2 51999  53.2191   2.4327 0001949  41.3923 318.7217 15.08845337 39880,6917.864000000001,95.437,541.077,538.381,0.0
51999.0,STARLINK-3667,PAYLOAD,2022-11-26 18:42:30,15.08849923,0.0001965,53.2192,1.2434,41.4588,318.6553,8.502399999999999e-05,1.066e-05,0.0,0 STARLINK-3667,1 51999U 22025AV  22330.77952109  .00001066  00000-0  85024-4 0  9990,2 51999  53.2192   1.2434 0001965  41.4588 318.6553 15.08849923 39925,6917.85,95.437,541.0740000000002,538.356,0.0
51999.0,STARLINK-3667,PAYLOAD,2022-11-27 05:50:13,15.08830779,0.0001692,53.219,359.1611,29.0425,331.0661,1.3469e-05,-7.4e-07,0.0,0 STARLINK-3667,1 51999U 22025AV  22331.24321363 -.00000074  00000-0  13469-4 0  9998,2 51999  53.2190 359.1611 0001692  29.0425 331.0661 15.08830779 41509,6917.909000000002,95.438,540.944,538.6030000000002,0.0
51999.0,STARLINK-3667,PAYLOAD,2022-11-27 12:11:46,15.08830711,0.0001688,53.2193,357.9722,40.5668,319.545,-6.2403e-05,-1.281e-05,0.0,0 STARLINK-3667,1 51999U 22025AV  22331.50817664 -.00001281  00000-0 -62403-4 0  9995,2 51999  53.2193 357.9722 0001688  40.5668 319.5450 15.08830711 40033,6917.909000000002,95.438,540.942,538.606,0.0
51999.0,STARLINK-3667,PAYLOAD,2022-11-27 18:33:18,15.08833027,0.0001696999999999,53.2194,356.783,40.6198,319.492,-5.9943e-05,-1.242e-05,0.0,0 STARLINK-3667,1 51999U 22025AV  22331.77313592 -.00001242  00000-0 -59943-4 0  9997,2 51999  53.2194 356.7830 0001697  40.6198 319.4920 15.08833027 40078,6917.901999999999,95.438,540.941,538.5930000000002,0.0
51999.0,STARLINK-3667,PAYLOAD,2022-11-28 10:27:10,15.08833361,0.0002011,53.2184,353.8085,32.7308,327.3808,-1.5881e-05,-5.41e-06,0.0,0 STARLINK-3667,1 51999U 22025AV  22332.43553700 -.00000541  00000-0 -15881-4 0  9992,2 51999  53.2184 353.8085 0002011  32.7308 327.3808 15.08833361 41685,6917.901,95.438,541.1569999999998,538.374,0.0
51999.0,STARLINK-3667,PAYLOAD,2022-11-28 12:02:33,15.08830897,0.0001955,53.2189,353.5115,36.7977,323.3149,-3.4637e-05,-8.39e-06,0.0,0 STARLINK-3667,1 51999U 22025AV  22332.50177928 -.00000839  00000-0 -34637-4 0  9994,2 51999  53.2189 353.5115 0001955  36.7977 323.3149 15.08830897 40182,6917.908,95.438,541.126,538.4209999999998,0.0
51999.0,STARLINK-3667,PAYLOAD,2022-11-29 03:56:25,15.08805744,0.000187,53.2186,350.5378,39.8269,320.286,0.00042599,6.492e-05,0.0,0 STARLINK-3667,1 51999U 22025AV  22333.16418558  .00006492  00000-0  42599-3 0  9998,2 51999  53.2186 350.5378 0001870  39.8269 320.2860 15.08805744 41798,6917.985,95.44,541.144,538.556,0.0
51999.0,STARLINK-3667,PAYLOAD,2022-11-29 10:17:57,15.08832782,0.0001976,53.2185,349.3485,37.5414,322.5716,0.00019303,2.785e-05,0.0,0 STARLINK-3667,1 51999U 22025AV  22333.42913449  .00002785  00000-0  19303-3 0  9994,2 51999  53.2185 349.3485 0001976  37.5414 322.5716 15.08832782 40321,6917.901999999999,95.438,541.134,538.4,0.0
51999.0,STARLINK-3667,PAYLOAD,2022-11-30 10:08:44,15.08835104,0.0002142,53.2183,344.8883,40.2787,319.8363,0.00012431,1.6899999999999994e-05,0.0,0 STARLINK-3667,1 51999U 22025AV  22334.42273773  .00001690  00000-0  12431-3 0  9993,2 51999  53.2183 344.8883 0002142  40.2787 319.8363 15.08835104 40475,6917.895,95.438,541.242,538.279,0.0
51999.0,STARLINK-3667,PAYLOAD,2022-11-30 18:05:40,15.08839475,0.0002175,53.2183,343.4013,39.416,320.699,0.00013996,1.94e-05,0.0,0 STARLINK-3667,1 51999U 22025AV  22334.75393530  .00001940  00000-0  13996-3 0  9998,2 51999  53.2183 343.4013 0002175  39.4160 320.6990 15.08839475 42031,6917.882,95.438,541.252,538.242,0.0
51999.0,STARLINK-3667,PAYLOAD,2022-12-01 09:59:31,15.08839277,0.0002197,53.2184,340.4273,41.3239,318.7919,1.0755999999999997e-05,-1.17e-06,0.0,0 STARLINK-3667,1 51999U 22025AV  22335.41633997 -.00000117  00000-0  10756-4 0  9994,2 51999  53.2184 340.4273 0002197  41.3239 318.7919 15.08839277 40622,6917.8830000000025,95.438,541.2669999999998,538.2280000000002,0.0
51999.0,STARLINK-3667,PAYLOAD,2022-12-01 17:56:26,15.08847974,0.0001979,53.2191,338.9408,50.219,309.8976,6.2561e-05,7.08e-06,0.0,0 STARLINK-3667,1 51999U 22025AV  22335.74753167  .00000708  00000-0  62561-4 0  9998,2 51999  53.2191 338.9408 0001979  50.2190 309.8976 15.08847974 40676,6917.856,95.437,541.09,538.352,0.0
51999.0,STARLINK-3667,PAYLOAD,2022-12-02 11:25:41,15.08839926,0.0002154,53.22,335.6716,43.7374,316.3789,4.1938e-05,3.79e-06,0.0,0 STARLINK-3667,1 51999U 22025AV  22336.47617631  .00000379  00000-0  41938-4 0  9993,2 51999  53.2200 335.6716 0002154  43.7374 316.3789 15.08839926 40785,6917.880999999999,95.438,541.236,538.256,0.0
51999.0,STARLINK-3667,PAYLOAD,2022-12-02 17:47:14,15.08836674,0.0002279,53.2178,334.4802,41.9604,318.1562,-3.5161e-05,-8.48e-06,0.0,0 STARLINK-3667,1 51999U 22025AV  22336.74114012 -.00000848  00000-0 -35161-4 0  9992,2 51999  53.2178 334.4802 0002279  41.9604 318.1562 15.08836674 42335,6917.891,95.438,541.332,538.179,0.0
51999.0,STARLINK-3667,PAYLOAD,2022-12-03 09:41:05,15.08836635,0.0002133,53.2193,331.5078,37.9978,322.1165,-1.153e-05,-4.72e-06,0.0,0 STARLINK-3667,1 51999U 22025AV  22337.40353990 -.00000472  00000-0 -11530-4 0  9993,2 51999  53.2193 331.5078 0002133  37.9978 322.1165 15.08836635 40927,6917.891,95.438,541.231,538.28,0.0
51999.0,STARLINK-3667,PAYLOAD,2022-12-04 09:31:53,15.08835523,0.0002138,53.2185,327.0472,35.6528,324.4607,-4.535e-05,-1.01e-05,0.0,0 STARLINK-3667,1 51999U 22025AV  22338.39714362 -.00001010  00000-0 -45350-4 0  9992,2 51999  53.2185 327.0472 0002138  35.6528 324.4607 15.08835523 42582,6917.894,95.438,541.238,538.28,0.0
51999.0,STARLINK-3667,PAYLOAD,2022-12-04 15:53:25,15.08835237,0.0002157,53.2185,325.8578,36.2834,323.8304,-4.152e-05,-9.49e-06,0.0,0 STARLINK-3667,1 51999U 22025AV  22338.66210444 -.00000949  00000-0 -41520-4 0  9999,2 51999  53.2185 325.8578 0002157  36.2834 323.8304 15.08835237 41110,6917.895,95.438,541.252,538.268,0.0
